[Satellite]
VERSION=1.1
NAME=SL-16 R/B
NICKNAME=SL-16 R/B
TLE1=1 22220U 92076B   22342.30053719  .00000224  00000+0  13641-3 0  9998
TLE2=2 22220  70.9989 168.8753 0010696 108.0436  64.6707 14.16520664553664
STATUS=0
